{"type": "FeatureCollection", "features": [ {"type": "Feature", "properties": {"norad_id": 34079, "name": "IRIDIUM 33 DEB", "group": "iridium-33-debris", "lat": 84.63722289395315, "lon": 140.24921303587917, "alt_km": 611.6870566225598, "timestamp": "2025-12-25T20:42:39.073003+00:00", "meta": {"OBJECT_NAME": "IRIDIUM 33 DEB", "OBJECT_ID": "1997-051CN", "EPOCH": "2025-12-25T01:08:56.152032", "MEAN_MOTION": 14.83849832, "ECCENTRICITY": 0.0004071, "INCLINATION": 86.3776, "RA_OF_ASC_NODE": 3.0626, "ARG_OF_PERICENTER": 321.815, "MEAN_ANOMALY": 100.8953, "EPHEMERIS_TYPE": 0, "CLASSIFICATION_TYPE": "U", "NORAD_CAT_ID": 34079, "ELEMENT_SET_NO": 999, "REV_AT_EPOCH": 89160, "BSTAR": 0.001993722, "MEAN_MOTION_DOT": 0.00016581, "MEAN_MOTION_DDOT": 0}, "tle": {"line1": "1 34079U 97051CN  25359.04787213  .00016581  00000+0  19937-2 0  9992", "line2": "2 34079  86.3776   3.0626 0004071 321.8150 100.8953 14.83849832891601"}}, "geometry": {"type": "Point", "coordinates": [140.24921303587917, 84.63722289395315]}}, {"type": "Feature", "properties": {"norad_id": 34088, "name": "IRIDIUM 33 DEB", "group": "iridium-33-debris", "lat": -21.733239473532816, "lon": -153.86504697167337, "alt_km": 595.2948075332961, "timestamp": "2025-12-25T20:42:39.073013+00:00", "meta": {"OBJECT_NAME": "IRIDIUM 33 DEB", "OBJECT_ID": "1997-051CX", "EPOCH": "2025-12-25T00:46:48.782784", "MEAN_MOTION": 14.91924983, "ECCENTRICITY": 0.0007024, "INCLINATION": 86.3841, "RA_OF_ASC_NODE": 25.0724, "ARG_OF_PERICENTER": 138.3667, "MEAN_ANOMALY": 285.8746, "EPHEMERIS_TYPE": 0, "CLASSIFICATION_TYPE": "U", "NORAD_CAT_ID": 34088, "ELEMENT_SET_NO": 999, "REV_AT_EPOCH": 88925, "BSTAR": 0.0025488887, "MEAN_MOTION_DOT": 0.00025881, "MEAN_MOTION_DDOT": 0}, "tle": {"line1": "1 34088U 97051CX  25359.03250906  .00025881  00000+0  25489-2 0  9997", "line2": "2 34088  86.3841  25.0724 0007024 138.3667 285.8746 14.91924983889254"}}, "geometry": {"type": "Point", "coordinates": [-153.86504697167337, -21.733239473532816]}}, {"type": "Feature", "properties": {"norad_id": 34091, "name": "IRIDIUM 33 DEB", "group": "iridium-33-debris", "lat": -54.87522678459549, "lon": 55.60197401296019, "alt_km": 615.1188942370691, "timestamp": "2025-12-25T20:42:39.073023+00:00", "meta": {"OBJECT_NAME": "IRIDIUM 33 DEB", "OBJECT_ID": "1997-051DA", "EPOCH": "2025-12-24T22:16:58.173312", "MEAN_MOTION": 14.82700275, "ECCENTRICITY": 0.00343495, "INCLINATION": 86.342, "RA_OF_ASC_NODE": 61.2483, "ARG_OF_PERICENTER": 249.729, "MEAN_ANOMALY": 110.024, "EPHEMERIS_TYPE": 0, "CLASSIFICATION_TYPE": "U", "NORAD_CAT_ID": 34091, "ELEMENT_SET_NO": 999, "REV_AT_EPOCH": 88047, "BSTAR": 0.0051867384, "MEAN_MOTION_DOT": 0.00042498, "MEAN_MOTION_DDOT": 0}, "tle": {"line1": "1 34091U 97051DA  25358.92845108  .00042498  00000+0  51867-2 0  9994", "line2": "2 34091  86.3420  61.2483 0034349 249.7290 110.0240 14.82700275880473"}}, "geometry": {"type": "Point", "coordinates": [55.60197401296019, -54.87522678459549]}}, {"type": "Feature", "properties": {"norad_id": 34097, "name": "IRIDIUM 33 DEB", "group": "iridium-33-debris", "lat": 65.31352379744581, "lon": 167.30169720040652, "alt_km": 821.927873179462, "timestamp": "2025-12-25T20:42:39.073033+00:00", "meta": {"OBJECT_NAME": "IRIDIUM 33 DEB", "OBJECT_ID": "1997-051DG", "EPOCH": "2025-12-25T00:05:41.421696", "MEAN_MOTION": 14.34875051, "ECCENTRICITY": 0.00814136, "INCLINATION": 86.2004, "RA_OF_ASC_NODE": 355.9934, "ARG_OF_PERICENTER": 322.038, "MEAN_ANOMALY": 37.5093, "EPHEMERIS_TYPE": 0, "CLASSIFICATION_TYPE": "U", "NORAD_CAT_ID": 34097, "ELEMENT_SET_NO": 999, "REV_AT_EPOCH": 87295, "BSTAR": 0.001672202, "MEAN_MOTION_DOT": 4.948e-05, "MEAN_MOTION_DDOT": 0}, "tle": {"line1": "1 34097U 97051DG  25359.00395164  .00004948  00000+0  16722-2 0  9991", "line2": "2 34097  86.2004 355.9934 0081413 322.0380  37.5093 14.34875051872954"}}, "geometry": {"type": "Point", "coordinates": [167.30169720040652, 65.31352379744581]}}, {"type": "Feature", "properties": {"norad_id": 34145, "name": "IRIDIUM 33 DEB", "group": "iridium-33-debris", "lat": 16.807475037770185, "lon": -32.17159846756101, "alt_km": 718.6889659051176, "timestamp": "2025-12-25T20:42:39.073043+00:00", "meta": {"OBJECT_NAME": "IRIDIUM 33 DEB", "OBJECT_ID": "1997-051DY", "EPOCH": "2025-12-23T08:41:39.975936", "MEAN_MOTION": 14.42361739, "ECCENTRICITY": 0.00555944, "INCLINATION": 86.2126, "RA_OF_ASC_NODE": 327.7951, "ARG_OF_PERICENTER": 60.0799, "MEAN_ANOMALY": 300.5906, "EPHEMERIS_TYPE": 0, "CLASSIFICATION_TYPE": "U", "NORAD_CAT_ID": 34145, "ELEMENT_SET_NO": 999, "REV_AT_EPOCH": 87791, "BSTAR": 0.0012419771, "MEAN_MOTION_DOT": 4.2e-05, "MEAN_MOTION_DDOT": 0}, "tle": {"line1": "1 34145U 97051DY  25357.36226824  .00004200  00000+0  12420-2 0  9990", "line2": "2 34145  86.2126 327.7951 0055594  60.0799 300.5906 14.42361739877912"}}, "geometry": {"type": "Point", "coordinates": [-32.17159846756101, 16.807475037770185]}}, {"type": "Feature", "properties": {"norad_id": 34146, "name": "IRIDIUM 33 DEB", "group": "iridium-33-debris", "lat": -26.268682178429795, "lon": -17.835636657935098, "alt_km": 751.8743017793267, "timestamp": "2025-12-25T20:42:39.073053+00:00", "meta": {"OBJECT_NAME": "IRIDIUM 33 DEB", "OBJECT_ID": "1997-051DZ", "EPOCH": "2025-12-24T23:34:34.583808", "MEAN_MOTION": 14.49125914, "ECCENTRICITY": 0.00268759, "INCLINATION": 86.2842, "RA_OF_ASC_NODE": 344.3912, "ARG_OF_PERICENTER": 179.4306, "MEAN_ANOMALY": 243.1645, "EPHEMERIS_TYPE": 0, "CLASSIFICATION_TYPE": "U", "NORAD_CAT_ID": 34146, "ELEMENT_SET_NO": 999, "REV_AT_EPOCH": 88284, "BSTAR": 0.00094318746, "MEAN_MOTION_DOT": 3.621e-05, "MEAN_MOTION_DDOT": 0}, "tle": {"line1": "1 34146U 97051DZ  25358.98234472  .00003621  00000+0  94319-3 0  9992", "line2": "2 34146  86.2842 344.3912 0026875 179.4306 243.1645 14.49125914882849"}}, "geometry": {"type": "Point", "coordinates": [-17.835636657935098, -26.268682178429795]}}, {"type": "Feature", "properties": {"norad_id": 34159, "name": "IRIDIUM 33 DEB", "group": "iridium-33-debris", "lat": -86.30916068566891, "lon": -55.54952577859003, "alt_km": 754.260274861078, "timestamp": "2025-12-25T20:42:39.073063+00:00", "meta": {"OBJECT_NAME": "IRIDIUM 33 DEB", "OBJECT_ID": "1997-051EN", "EPOCH": "2025-12-25T02:46:00.544512", "MEAN_MOTION": 14.38523185, "ECCENTRICITY": 0.00262268, "INCLINATION": 86.3491, "RA_OF_ASC_NODE": 42.9636, "ARG_OF_PERICENTER": 244.0886, "MEAN_ANOMALY": 115.7609, "EPHEMERIS_TYPE": 0, "CLASSIFICATION_TYPE": "U", "NORAD_CAT_ID": 34159, "ELEMENT_SET_NO": 999, "REV_AT_EPOCH": 88137, "BSTAR": 0.00039008063, "MEAN_MOTION_DOT": 1.216e-05, "MEAN_MOTION_DDOT": 0}, "tle": {"line1": "1 34159U 97051EN  25359.11528408  .00001216  00000+0  39008-3 0  9999", "line2": "2 34159  86.3491  42.9636 0026226 244.0886 115.7609 14.38523185881371"}}, "geometry": {"type": "Point", "coordinates": [-55.54952577859003, -86.30916068566891]}}, {"type": "Feature", "properties": {"norad_id": 34350, "name": "IRIDIUM 33 DEB", "group": "iridium-33-debris", "lat": -82.38425212257938, "lon": -154.17773278310926, "alt_km": 764.5049208324644, "timestamp": "2025-12-25T20:42:39.073074+00:00", "meta": {"OBJECT_NAME": "IRIDIUM 33 DEB", "OBJECT_ID": "1997-051ES", "EPOCH": "2025-12-24T23:49:25.823136", "MEAN_MOTION": 14.45414925, "ECCENTRICITY": 0.00235086, "INCLINATION": 86.3273, "RA_OF_ASC_NODE": 357.4897, "ARG_OF_PERICENTER": 97.7488, "MEAN_ANOMALY": 319.833, "EPHEMERIS_TYPE": 0, "CLASSIFICATION_TYPE": "U", "NORAD_CAT_ID": 34350, "ELEMENT_SET_NO": 999, "REV_AT_EPOCH": 88470, "BSTAR": 0.00034315311, "MEAN_MOTION_DOT": 1.231e-05, "MEAN_MOTION_DDOT": 0}, "tle": {"line1": "1 34350U 97051ES  25358.99265999  .00001231  00000+0  34315-3 0  9993", "line2": "2 34350  86.3273 357.4897 0023508  97.7488 319.8330 14.45414925884703"}}, "geometry": {"type": "Point", "coordinates": [-154.17773278310926, -82.38425212257938]}}, {"type": "Feature", "properties": {"norad_id": 34366, "name": "IRIDIUM 33 DEB", "group": "iridium-33-debris", "lat": -77.61446025047778, "lon": 26.79351211439926, "alt_km": 735.8723816457914, "timestamp": "2025-12-25T20:42:39.073084+00:00", "meta": {"OBJECT_NAME": "IRIDIUM 33 DEB", "OBJECT_ID": "1997-051FJ", "EPOCH": "2025-12-25T03:10:17.908608", "MEAN_MOTION": 14.54149809, "ECCENTRICITY": 0.00230656, "INCLINATION": 86.3683, "RA_OF_ASC_NODE": 43.9225, "ARG_OF_PERICENTER": 101.255, "MEAN_ANOMALY": 317.3929, "EPHEMERIS_TYPE": 0, "CLASSIFICATION_TYPE": "U", "NORAD_CAT_ID": 34366, "ELEMENT_SET_NO": 999, "REV_AT_EPOCH": 88362, "BSTAR": 0.00093969589, "MEAN_MOTION_DOT": 4.007e-05, "MEAN_MOTION_DDOT": 0}, "tle": {"line1": "1 34366U 97051FJ  25359.13215172  .00004007  00000+0  93970-3 0  9991", "line2": "2 34366  86.3683  43.9225 0023065 101.2550 317.3929 14.54149809883629"}}, "geometry": {"type": "Point", "coordinates": [26.79351211439926, -77.61446025047778]}}, {"type": "Feature", "properties": {"norad_id": 34375, "name": "IRIDIUM 33 DEB", "group": "iridium-33-debris", "lat": -66.5184085111222, "lon": 169.1548699433901, "alt_km": 905.4752071647035, "timestamp": "2025-12-25T20:42:39.073094+00:00", "meta": {"OBJECT_NAME": "IRIDIUM 33 DEB", "OBJECT_ID": "1997-051FT", "EPOCH": "2025-12-24T13:09:42.393312", "MEAN_MOTION": 14.18013041, "ECCENTRICITY": 0.01036939, "INCLINATION": 86.4324, "RA_OF_ASC_NODE": 177.9413, "ARG_OF_PERICENTER": 89.8064, "MEAN_ANOMALY": 337.6478, "EPHEMERIS_TYPE": 0, "CLASSIFICATION_TYPE": "U", "NORAD_CAT_ID": 34375, "ELEMENT_SET_NO": 999, "REV_AT_EPOCH": 86879, "BSTAR": 0.00038925605, "MEAN_MOTION_DOT": 8.6e-06, "MEAN_MOTION_DDOT": 0}, "tle": {"line1": "1 34375U 97051FT  25358.54840733  .00000860  00000+0  38926-3 0  9995", "line2": "2 34375  86.4324 177.9413 0103693  89.8064 337.6478 14.18013041868799"}}, "geometry": {"type": "Point", "coordinates": [169.1548699433901, -66.5184085111222]}}]}